<?xml version="1.0" encoding="UTF-8"?>
<kml xmlns="http://www.opengis.net/kml/2.2">
  <Document>
    <name>Untitled layer</name>
    <Style id="icon-1899-0288D1-normal">
      <IconStyle>
        <color>ffd18802</color>
        <scale>1</scale>
        <Icon>
          <href>https://www.gstatic.com/mapspro/images/stock/503-wht-blank_maps.png</href>
        </Icon>
        <hotSpot x="32" xunits="pixels" y="64" yunits="insetPixels"/>
      </IconStyle>
      <LabelStyle>
        <scale>0</scale>
      </LabelStyle>
    </Style>
    <Style id="icon-1899-0288D1-highlight">
      <IconStyle>
        <color>ffd18802</color>
        <scale>1</scale>
        <Icon>
          <href>https://www.gstatic.com/mapspro/images/stock/503-wht-blank_maps.png</href>
        </Icon>
        <hotSpot x="32" xunits="pixels" y="64" yunits="insetPixels"/>
      </IconStyle>
      <LabelStyle>
        <scale>1</scale>
      </LabelStyle>
    </Style>
    <StyleMap id="icon-1899-0288D1">
      <Pair>
        <key>normal</key>
        <styleUrl>#icon-1899-0288D1-normal</styleUrl>
      </Pair>
      <Pair>
        <key>highlight</key>
        <styleUrl>#icon-1899-0288D1-highlight</styleUrl>
      </Pair>
    </StyleMap>
    <Style id="icon-1899-0288D1-nodesc-normal">
      <IconStyle>
        <color>ffd18802</color>
        <scale>1</scale>
        <Icon>
          <href>https://www.gstatic.com/mapspro/images/stock/503-wht-blank_maps.png</href>
        </Icon>
        <hotSpot x="32" xunits="pixels" y="64" yunits="insetPixels"/>
      </IconStyle>
      <LabelStyle>
        <scale>0</scale>
      </LabelStyle>
      <BalloonStyle>
        <text><![CDATA[<h3>$[name]</h3>]]></text>
      </BalloonStyle>
    </Style>
    <Style id="icon-1899-0288D1-nodesc-highlight">
      <IconStyle>
        <color>ffd18802</color>
        <scale>1</scale>
        <Icon>
          <href>https://www.gstatic.com/mapspro/images/stock/503-wht-blank_maps.png</href>
        </Icon>
        <hotSpot x="32" xunits="pixels" y="64" yunits="insetPixels"/>
      </IconStyle>
      <LabelStyle>
        <scale>1</scale>
      </LabelStyle>
      <BalloonStyle>
        <text><![CDATA[<h3>$[name]</h3>]]></text>
      </BalloonStyle>
    </Style>
    <StyleMap id="icon-1899-0288D1-nodesc">
      <Pair>
        <key>normal</key>
        <styleUrl>#icon-1899-0288D1-nodesc-normal</styleUrl>
      </Pair>
      <Pair>
        <key>highlight</key>
        <styleUrl>#icon-1899-0288D1-nodesc-highlight</styleUrl>
      </Pair>
    </StyleMap>
    <Placemark>
      <name>Fulton St from 42nd Ave to 43rd Ave</name>
      <description>25 MPH</description>
      <styleUrl>#icon-1899-0288D1</styleUrl>
      <Point>
        <coordinates>
          -122.5034169,37.771732,0
        </coordinates>
      </Point>
    </Placemark>
    <Placemark>
      <name>Fulton St from 2nd Ave to Arguello Blvd</name>
      <description>25 MPH</description>
      <styleUrl>#icon-1899-0288D1</styleUrl>
      <Point>
        <coordinates>
          -122.4594217,37.7743583,0
        </coordinates>
      </Point>
    </Placemark>
    <Placemark>
      <name>Geary Blvd from 7th Ave to 8th Ave</name>
      <description>25 MPH</description>
      <styleUrl>#icon-1899-0288D1</styleUrl>
      <Point>
        <coordinates>
          -122.4656382,37.7810217,0
        </coordinates>
      </Point>
    </Placemark>
    <Placemark>
      <name>Lincoln Way from 27th Ave to 28th Ave</name>
      <description>30 MPH</description>
      <styleUrl>#icon-1899-0288D1</styleUrl>
      <Point>
        <coordinates>
          -122.4863094,37.7648988,0
        </coordinates>
      </Point>
    </Placemark>
    <Placemark>
      <name>Geary Blvd from Webster St to Buchanan St</name>
      <description>30 MPH</description>
      <styleUrl>#icon-1899-0288D1</styleUrl>
      <Point>
        <coordinates>
          -122.4313088,37.7846226,0
        </coordinates>
      </Point>
    </Placemark>
    <Placemark>
      <name>Turk St from Van Ness Ave to Polk St</name>
      <description>20 MPH</description>
      <styleUrl>#icon-1899-0288D1</styleUrl>
      <Point>
        <coordinates>
          -122.4197715,37.7820919,0
        </coordinates>
      </Point>
    </Placemark>
    <Placemark>
      <name>Bay St from Octavia St to Gough St</name>
      <description>25 MPH</description>
      <styleUrl>#icon-1899-0288D1</styleUrl>
      <Point>
        <coordinates>
          -122.4292219,37.8036122,0
        </coordinates>
      </Point>
    </Placemark>
    <Placemark>
      <name>Franklin St from Union St to Green St</name>
      <description>25 MPH</description>
      <styleUrl>#icon-1899-0288D1</styleUrl>
      <Point>
        <coordinates>
          -122.4255016,37.7978493,0
        </coordinates>
      </Point>
    </Placemark>
    <Placemark>
      <name>Columbus Ave from Lombard St to Greenwich St</name>
      <description>20 MPH</description>
      <styleUrl>#icon-1899-0288D1</styleUrl>
      <Point>
        <coordinates>
          -122.4132252,37.8025361,0
        </coordinates>
      </Point>
    </Placemark>
    <Placemark>
      <name>Broadway from Powell St to Stockton St</name>
      <description>20 MPH</description>
      <styleUrl>#icon-1899-0288D1</styleUrl>
      <Point>
        <coordinates>
          -122.4094503,37.7975727,0
        </coordinates>
      </Point>
    </Placemark>
    <Placemark>
      <name>Embarcadero from Green St to Battery St</name>
      <description>30 MPH</description>
      <styleUrl>#icon-1899-0288D1</styleUrl>
      <Point>
        <coordinates>
          -122.4006524,37.8025589,0
        </coordinates>
      </Point>
    </Placemark>
    <Placemark>
      <name>Mission St from 8th St to 9th St</name>
      <description>20 MPH</description>
      <styleUrl>#icon-1899-0288D1</styleUrl>
      <Point>
        <coordinates>
          -122.4139716,37.7768001,0
        </coordinates>
      </Point>
    </Placemark>
    <Placemark>
      <name>10th St from Harrison St to Folsom St</name>
      <description>25 MPH</description>
      <styleUrl>#icon-1899-0288D1</styleUrl>
      <Point>
        <coordinates>
          -122.4121495,37.7721858,0
        </coordinates>
      </Point>
    </Placemark>
    <Placemark>
      <name>9th St from Bryant St to Harrison St</name>
      <description>25 MPH</description>
      <styleUrl>#icon-1899-0288D1</styleUrl>
      <Point>
        <coordinates>
          -122.4093381,37.7719974,0
        </coordinates>
      </Point>
    </Placemark>
    <Placemark>
      <name>7th St from Harrison St to Folsom St</name>
      <description>25 MPH</description>
      <styleUrl>#icon-1899-0288D1</styleUrl>
      <Point>
        <coordinates>
          -122.4070519,37.7761713,0
        </coordinates>
      </Point>
    </Placemark>
    <Placemark>
      <name>Harrison St from 4th St to 5th St</name>
      <description>25 MPH</description>
      <styleUrl>#icon-1899-0288D1</styleUrl>
      <Point>
        <coordinates>
          -122.4007047,37.7799695,0
        </coordinates>
      </Point>
    </Placemark>
    <Placemark>
      <name>Bryant St from 2nd St to 3rd St</name>
      <description>25 MPH</description>
      <styleUrl>#icon-1899-0288D1</styleUrl>
      <Point>
        <coordinates>
          -122.3947052,37.7821892,0
        </coordinates>
      </Point>
    </Placemark>
    <Placemark>
      <name>King St (EB only) from 4th St to 5th St</name>
      <description>30 MPH</description>
      <styleUrl>#icon-1899-0288D1</styleUrl>
      <Point>
        <coordinates>
          -122.3949749,37.7753931,0
        </coordinates>
      </Point>
    </Placemark>
    <Placemark>
      <name>Market St from Danvers St to Douglass St</name>
      <description>30 MPH</description>
      <styleUrl>#icon-1899-0288D1</styleUrl>
      <Point>
        <coordinates>
          -122.441606,37.7610701,0
        </coordinates>
      </Point>
    </Placemark>
    <Placemark>
      <name>Guerrero St from 19th St to 20th St</name>
      <description>25 MPH</description>
      <styleUrl>#icon-1899-0288D1</styleUrl>
      <Point>
        <coordinates>
          -122.4235723,37.7591859,0
        </coordinates>
      </Point>
    </Placemark>
    <Placemark>
      <name>16th St from Bryant St to Potrero Ave</name>
      <description>25 MPH</description>
      <styleUrl>#icon-1899-0288D1</styleUrl>
      <Point>
        <coordinates>
          -122.4090575,37.7657392,0
        </coordinates>
      </Point>
    </Placemark>
    <Placemark>
      <name>San Jose Ave from 29th St to 30th St</name>
      <description>25 MPH</description>
      <styleUrl>#icon-1899-0288D1</styleUrl>
      <Point>
        <coordinates>
          -122.4230834,37.7431078,0
        </coordinates>
      </Point>
    </Placemark>
    <Placemark>
      <name>Cesar Chavez St from Folsom St to Harrison St</name>
      <description>25 MPH</description>
      <styleUrl>#icon-1899-0288D1</styleUrl>
      <Point>
        <coordinates>
          -122.4126191,37.7482821,0
        </coordinates>
      </Point>
    </Placemark>
    <Placemark>
      <name>Cesar Chavez St from Indiana St to Tennessee St</name>
      <description>30 MPH</description>
      <styleUrl>#icon-1899-0288D1</styleUrl>
      <Point>
        <coordinates>
          -122.3894189,37.7501188,0
        </coordinates>
      </Point>
    </Placemark>
    <Placemark>
      <name>3rd St (NB only) from Key Ave to Jamestown Ave</name>
      <description>25 MPH</description>
      <styleUrl>#icon-1899-0288D1</styleUrl>
      <Point>
        <coordinates>
          -122.3966872,37.7198795,0
        </coordinates>
      </Point>
    </Placemark>
    <Placemark>
      <name>Bayshore Blvd (SB only) from 101 off-ramp to Tunnel Ave</name>
      <description>30 MPH</description>
      <styleUrl>#icon-1899-0288D1</styleUrl>
      <Point>
        <coordinates>
          -122.3997535,37.714213,0
        </coordinates>
      </Point>
    </Placemark>
    <Placemark>
      <name>Geneva Ave from Prague St to Brookdale Ave</name>
      <description>30 MPH</description>
      <styleUrl>#icon-1899-0288D1</styleUrl>
      <Point>
        <coordinates>
          -122.4277161,37.7115443,0
        </coordinates>
      </Point>
    </Placemark>
    <Placemark>
      <name>Mission St from Ottawa Ave to Allison St</name>
      <description>20 MPH</description>
      <styleUrl>#icon-1899-0288D1</styleUrl>
      <Point>
        <coordinates>
          -122.4432028,37.7140644,0
        </coordinates>
      </Point>
    </Placemark>
    <Placemark>
      <name>Alemany Blvd from Farragut Ave to Naglee Ave</name>
      <description>30 MPH</description>
      <styleUrl>#icon-1899-0288D1</styleUrl>
      <Point>
        <coordinates>
          -122.4506078,37.7129814,0
        </coordinates>
      </Point>
    </Placemark>
    <Placemark>
      <name>Ocean Ave from Frida Kahlo Way to Howth St</name>
      <description>25 MPH</description>
      <styleUrl>#icon-1899-0288D1</styleUrl>
      <Point>
        <coordinates>
          -122.451037,37.7229961,0
        </coordinates>
      </Point>
    </Placemark>
    <Placemark>
      <name>San Jose Ave from Santa Ynez Ave to Ocean Ave</name>
      <description>25 MPH</description>
      <styleUrl>#icon-1899-0288D1</styleUrl>
      <Point>
        <coordinates>
          -122.4434154,37.7245308,0
        </coordinates>
      </Point>
    </Placemark>
    <Placemark>
      <name>Monterey Blvd from Edna St to Congo St</name>
      <description>25 MPH</description>
      <styleUrl>#icon-1899-0288D1</styleUrl>
      <Point>
        <coordinates>
          -122.4444145,37.7315474,0
        </coordinates>
      </Point>
    </Placemark>
    <Placemark>
      <name>Sloat Blvd from 41st Ave to Skyline Blvd</name>
      <description>30 MPH</description>
      <styleUrl>#icon-1899-0288D1</styleUrl>
      <Point>
        <coordinates>
          -122.4983618,37.7339848,0
        </coordinates>
      </Point>
    </Placemark>

    <!-- NEW OAKLAND CAMERAS -->
    <Placemark>
      <name>Martin Luther King Jr Way (42nd to 43rd)</name>
      <description>30 MPH</description>
      <styleUrl>#icon-1899-0288D1</styleUrl>
      <Point>
        <coordinates>-122.2678,37.8340,0</coordinates>
      </Point>
    </Placemark>
    <Placemark>
      <name>Claremont Ave (Hillegass to College)</name>
      <description>30 MPH</description>
      <styleUrl>#icon-1899-0288D1</styleUrl>
      <Point>
        <coordinates>-122.2526,37.8504,0</coordinates>
      </Point>
    </Placemark>
    <Placemark>
      <name>Foothill Blvd (Irving to 24th)</name>
      <description>25 MPH</description>
      <styleUrl>#icon-1899-0288D1</styleUrl>
      <Point>
        <coordinates>-122.2285,37.7885,0</coordinates>
      </Point>
    </Placemark>
    <Placemark>
      <name>Foothill Blvd (19th to 20th)</name>
      <description>30 MPH</description>
      <styleUrl>#icon-1899-0288D1</styleUrl>
      <Point>
        <coordinates>-122.2346,37.7909,0</coordinates>
      </Point>
    </Placemark>
    <Placemark>
      <name>7th St (Adeline to Linden)</name>
      <description>30 MPH</description>
      <styleUrl>#icon-1899-0288D1</styleUrl>
      <Point>
        <coordinates>-122.2885,37.8049,0</coordinates>
      </Point>
    </Placemark>
    <Placemark>
      <name>West Grand Ave (Chestnut to Linden)</name>
      <description>30 MPH</description>
      <styleUrl>#icon-1899-0288D1</styleUrl>
      <Point>
        <coordinates>-122.2830,37.8130,0</coordinates>
      </Point>
    </Placemark>
    <Placemark>
      <name>Broadway (26th to 27th)</name>
      <description>20 MPH</description>
      <styleUrl>#icon-1899-0288D1</styleUrl>
      <Point>
        <coordinates>-122.2646,37.8149,0</coordinates>
      </Point>
    </Placemark>
    <Placemark>
      <name>San Pablo Ave (Athens to Sycamore)</name>
      <description>25 MPH</description>
      <styleUrl>#icon-1899-0288D1</styleUrl>
      <Point>
        <coordinates>-122.2741,37.8115,0</coordinates>
      </Point>
    </Placemark>
    <Placemark>
      <name>7th St (Broadway to Franklin)</name>
      <description>20 MPH</description>
      <styleUrl>#icon-1899-0288D1</styleUrl>
      <Point>
        <coordinates>-122.2750,37.7988,0</coordinates>
      </Point>
    </Placemark>
    <Placemark>
      <name>MacArthur Blvd (Green Acre to Enos)</name>
      <description>30 MPH</description>
      <styleUrl>#icon-1899-0288D1</styleUrl>
      <Point>
        <coordinates>-122.1830,37.7790,0</coordinates>
      </Point>
    </Placemark>
    <Placemark>
      <name>Fruitvale Ave (Galindo to Logan)</name>
      <description>25 MPH</description>
      <styleUrl>#icon-1899-0288D1</styleUrl>
      <Point>
        <coordinates>-122.2170,37.7870,0</coordinates>
      </Point>
    </Placemark>
    <Placemark>
      <name>International Blvd (40th to 41st)</name>
      <description>25 MPH</description>
      <styleUrl>#icon-1899-0288D1</styleUrl>
      <Point>
        <coordinates>-122.2135,37.7685,0</coordinates>
      </Point>
    </Placemark>
    <Placemark>
      <name>Hegenberger Rd (Spencer to Hawley)</name>
      <description>40 MPH</description>
      <styleUrl>#icon-1899-0288D1</styleUrl>
      <Point>
        <coordinates>-122.1915,37.7378,0</coordinates>
      </Point>
    </Placemark>
    <Placemark>
      <name>73rd Ave (Fresno to Krause)</name>
      <description>30 MPH</description>
      <styleUrl>#icon-1899-0288D1</styleUrl>
      <Point>
        <coordinates>-122.1864,37.7554,0</coordinates>
      </Point>
    </Placemark>
    <Placemark>
      <name>Bancroft Ave (86th to Auseon)</name>
      <description>35 MPH</description>
      <styleUrl>#icon-1899-0288D1</styleUrl>
      <Point>
        <coordinates>-122.1645,37.7565,0</coordinates>
      </Point>
    </Placemark>
    <Placemark>
      <name>98th Ave (Blake to Gould)</name>
      <description>30 MPH</description>
      <styleUrl>#icon-1899-0288D1</styleUrl>
      <Point>
        <coordinates>-122.1485,37.7415,0</coordinates>
      </Point>
    </Placemark>
    <Placemark>
      <name>98th Ave (Cherry to Birch)</name>
      <description>30 MPH</description>
      <styleUrl>#icon-1899-0288D1</styleUrl>
      <Point>
        <coordinates>-122.1555,37.7455,0</coordinates>
      </Point>
    </Placemark>
    <Placemark>
      <name>Bancroft Ave (61st to 62nd)</name>
      <description>30 MPH</description>
      <styleUrl>#icon-1899-0288D1</styleUrl>
      <Point>
        <coordinates>-122.1855,37.7695,0</coordinates>
      </Point>
    </Placemark>

  </Document>
</kml>
